NORAD_CAT_ID,OBJECT_NAME,OBJECT_TYPE,EPOCH,MEAN_MOTION,ECCENTRICITY,INCLINATION,RA_OF_ASC_NODE,ARG_OF_PERICENTER,MEAN_ANOMALY,BSTAR,MEAN_MOTION_DOT,MEAN_MOTION_DDOT,TLE_LINE0,TLE_LINE1,TLE_LINE2,SEMIMAJOR_AXIS,PERIOD,APOGEE,PERIGEE,DECAYED
53905.0,STARLINK-5003,PAYLOAD,2023-12-22 05:48:47,15.0883435,0.0002354,53.2195,343.6051,152.2507,207.8611,0.00016945,2.409e-05,0.0,0 STARLINK-5003,1 53905U 22119V   23356.24222031  .00002409  00000-0  16945-3 0  9995,2 53905  53.2195 343.6051 0002354 152.2507 207.8611 15.08834350 69352,6917.898,95.438,541.391,538.134,0.0
53905.0,STARLINK-5003,PAYLOAD,2023-12-23 08:50:21,15.08850593,0.0001673,53.2192,338.5433,99.2101,260.9081,-9.7275e-05,-1.836e-05,0.0,0 STARLINK-5003,1 53905U 22119V   23357.36830150 -.00001836  00000-0 -97275-4 0  9997,2 53905  53.2192 338.5433 0001673  99.2101 260.9081 15.08850593 69526,6917.848,95.437,540.87,538.556,0.0
53905.0,STARLINK-5003,PAYLOAD,2023-12-24 03:54:58,15.08840299,0.000148,53.2182,334.9739,102.0756,258.0402,0.00013637,1.883e-05,0.0,0 STARLINK-5003,1 53905U 22119V   23358.16318203  .00001883  00000-0  13637-3 0  9995,2 53905  53.2182 334.9739 0001480 102.0756 258.0402 15.08840299 69649,6917.879,95.438,540.768,538.721,0.0
53905.0,STARLINK-5003,PAYLOAD,2023-12-24 05:30:21,15.08842292,0.0001476,53.2184,334.6763,97.9893,262.1267,0.00015233,2.137e-05,0.0,0 STARLINK-5003,1 53905U 22119V   23358.22942091  .00002137  00000-0  15233-3 0  9997,2 53905  53.2184 334.6763 0001476  97.9893 262.1267 15.08842292 70073,6917.873,95.437,540.759,538.717,0.0
53905.0,STARLINK-5003,PAYLOAD,2023-12-25 03:45:46,15.08840012,0.0001398,53.2181,330.514,95.7611,264.3541,8.785e-05,1.11e-05,0.0,0 STARLINK-5003,1 53905U 22119V   23359.15678640  .00001110  00000-0  87850-4 0  9991,2 53905  53.2181 330.5140 0001398  95.7611 264.3541 15.08840012 69795,6917.88,95.438,540.712,538.778,0.0
53905.0,STARLINK-5003,PAYLOAD,2023-12-25 05:21:09,15.08841706,0.0001388,53.2184,330.2166,95.3038,264.8113,0.00010045,1.311e-05,0.0,0 STARLINK-5003,1 53905U 22119V   23359.22302532  .00001311  00000-0  10045-3 0  9997,2 53905  53.2184 330.2166 0001388  95.3038 264.8113 15.08841706 70222,6917.875,95.437,540.7,538.78,0.0
53905.0,STARLINK-5003,PAYLOAD,2023-12-25 22:50:24,15.08835571,0.0001378,53.2181,326.9491,95.8152,264.2997,1.437e-06,-2.65e-06,0.0,0 STARLINK-5003,1 53905U 22119V   23359.95167360 -.00000265  00000-0  14370-5 0  9990,2 53905  53.2181 326.9491 0001378  95.8152 264.2997 15.08835571 70332,6917.894,95.438,540.712,538.806,0.0
53905.0,STARLINK-5003,PAYLOAD,2023-12-26 06:47:19,15.08849129,0.0001409,53.2186,325.4615,100.3966,259.7185,0.00010384,1.365e-05,0.0,0 STARLINK-5003,1 53905U 22119V   23360.28286191  .00001365  00000-0  10384-3 0  9992,2 53905  53.2186 325.4615 0001409 100.3966 259.7185 15.08849129 69968,6917.852,95.437,540.692,538.743,0.0
53905.0,STARLINK-5003,PAYLOAD,2023-12-27 03:27:20,15.08842087,0.0001288,53.2181,321.6001,101.4229,258.6908,7.0172e-05,8.29e-06,0.0,0 STARLINK-5003,1 53905U 22119V   23361.14398893  .00000829  00000-0  70172-4 0  9997,2 53905  53.2181 321.6001 0001288 101.4229 258.6908 15.08842087 70092,6917.874,95.437,540.63,538.848,0.0
53905.0,STARLINK-5003,PAYLOAD,2023-12-27 06:38:06,15.08843346,0.0001491,53.2196,321.0046,75.2795,284.8363,9.9371e-05,1.294e-05,0.0,0 STARLINK-5003,1 53905U 22119V   23361.27646865  .00001294  00000-0  99371-4 0  9995,2 53905  53.2196 321.0046 0001491  75.2795 284.8363 15.08843346 70537,6917.87,95.437,540.767,538.704,0.0
53905.0,STARLINK-5003,PAYLOAD,2023-12-28 06:28:53,15.08849625,0.000142,53.2187,316.5404,96.9963,263.1191,0.00011511,1.545e-05,0.0,0 STARLINK-5003,1 53905U 22119V   23362.27006397  .00001545  00000-0  11511-3 0  9994,2 53905  53.2187 316.5404 0001420  96.9963 263.1191 15.08849625 70268,6917.851,95.437,540.698,538.734,0.0
53905.0,STARLINK-5003,PAYLOAD,2023-12-28 20:47:22,15.08835922,0.0001454,53.2194,313.8682,79.5967,280.5189,1.3309e-05,-7.6e-07,0.0,0 STARLINK-5003,1 53905U 22119V   23362.86623713 -.00000076  00000-0  13309-4 0  9993,2 53905  53.2194 313.8682 0001454  79.5967 280.5189 15.08835922 70773,6917.893,95.438,540.764,538.752,0.0
53905.0,STARLINK-5003,PAYLOAD,2023-12-29 03:08:55,15.0884025,0.0001663,53.2194,312.6781,99.3717,260.7463,3.2698e-05,2.32e-06,0.0,0 STARLINK-5003,1 53905U 22119V   23363.13119259  .00000232  00000-0  32698-4 0  9994,2 53905  53.2194 312.6781 0001663  99.3717 260.7463 15.08840250 70398,6917.88,95.438,540.895,538.594,0.0
53905.0,STARLINK-5003,PAYLOAD,2023-12-29 06:19:41,15.08844343,0.0001649,53.2195,312.0833,93.5078,266.6103,7.1112e-05,8.44e-06,0.0,0 STARLINK-5003,1 53905U 22119V   23363.26366986  .00000844  00000-0  71112-4 0  9992,2 53905  53.2195 312.0833 0001649  93.5078 266.6103 15.08844343 70833,6917.867,95.437,540.873,538.591,0.0
53905.0,STARLINK-5003,PAYLOAD,2023-12-30 02:59:41,15.08851425,0.0001653,53.2192,308.2169,91.7163,268.4018,6.1475e-05,6.91e-06,0.0,0 STARLINK-5003,1 53905U 22119V   23364.12478447  .00000691  00000-0  61475-4 0  9995,2 53905  53.2192 308.2169 0001653  91.7163 268.4018 15.08851425 70541,6917.845,95.437,540.854,538.567,0.0
53905.0,STARLINK-5003,PAYLOAD,2023-12-30 06:10:27,15.08854511,0.000164,53.219,307.6211,96.025,264.0929,9.859e-05,1.282e-05,0.0,0 STARLINK-5003,1 53905U 22119V   23364.25726083  .00001282  00000-0  98590-4 0  9996,2 53905  53.2190 307.6211 0001640  96.0250 264.0929 15.08854511 70981,6917.836,95.437,540.836,538.567,0.0
53905.0,STARLINK-5003,PAYLOAD,2023-12-30 20:28:56,15.08842416,0.0002131,53.219,304.937,136.8629,223.2531,-6.4356e-05,-1.312e-05,0.0,0 STARLINK-5003,1 53905U 22119V   23364.85343170 -.00001312  00000-0 -64356-4 0  9993,2 53905  53.2190 304.9370 0002131 136.8629 223.2531 15.08842416 71074,6917.873,95.437,541.212,538.264,0.0
53905.0,STARLINK-5003,PAYLOAD,2023-12-31 02:50:29,15.088404,0.0001598,53.2193,303.7576,97.8586,262.2587,3.6619e-05,2.95e-06,0.0,0 STARLINK-5003,1 53905U 22119V   23365.11839124  .00000295  00000-0  36619-4 0  9990,2 53905  53.2193 303.7576 0001598  97.8586 262.2587 15.08840400 70698,6917.879,95.438,540.85,538.639,0.0
53905.0,STARLINK-5003,PAYLOAD,2023-12-31 06:01:15,15.08842578,0.000154,53.2191,303.1621,96.6358,263.4809,5.3481e-05,5.63e-06,0.0,0 STARLINK-5003,1 53905U 22119V   23365.25086998  .00000563  00000-0  53481-4 0  9992,2 53905  53.2191 303.1621 0001540  96.6358 263.4809 15.08842578 71130,6917.873,95.437,540.803,538.672,0.0
53905.0,STARLINK-5003,PAYLOAD,2024-01-01 05:52:02,15.08842001,0.0001557,53.2184,298.7006,110.1222,249.9938,-4.2481e-05,-9.64e-06,0.0,0 STARLINK-5003,1 53905U 22119V   24001.24447338 -.00000964  00000-0 -42481-4 0  9993,2 53905  53.2184 298.7006 0001557 110.1222 249.9938 15.08842001 70860,6917.874,95.437,540.816,538.662,0.0
53905.0,STARLINK-5003,PAYLOAD,2024-01-02 05:42:48,15.08849883,0.0001398,53.2181,294.2401,93.9299,266.1853,0.00014978,2.097e-05,0.0,0 STARLINK-5003,1 53905U 22119V   24002.23806363  .00002097  00000-0  14978-3 0  9996,2 53905  53.2181 294.2401 0001398  93.9299 266.1853 15.08849883 71012,6917.85,95.437,540.682,538.748,0.0
53905.0,STARLINK-5003,PAYLOAD,2024-01-03 02:22:50,15.08843445,0.0001339,53.2179,290.3683,94.2754,265.8391,5.6799e-05,6.16e-06,0.0,0 STARLINK-5003,1 53905U 22119V   24003.09919021  .00000616  00000-0  56799-4 0  9990,2 53905  53.2179 290.3683 0001339  94.2754 265.8391 15.08843445 71148,6917.87,95.437,540.661,538.809,0.0
53905.0,STARLINK-5003,PAYLOAD,2024-01-03 05:33:36,15.08842677,0.0001433,53.2187,289.7819,98.0463,262.0692,7.5685e-05,9.17e-06,0.0,0 STARLINK-5003,1 53905U 22119V   24003.23167074  .00000917  00000-0  75685-4 0  9998,2 53905  53.2187 289.7819 0001433  98.0463 262.0692 15.08842677 71581,6917.872,95.437,540.729,538.746,0.0
53905.0,STARLINK-5003,PAYLOAD,2024-01-04 03:49:00,15.08841944,0.0001424,53.2185,285.6167,105.875,254.2399,-1.279e-05,-4.92e-06,0.0,0 STARLINK-5003,1 53905U 22119V   24004.15903374 -.00000492  00000-0 -12790-4 0  9999,2 53905  53.2185 285.6167 0001424 105.8750 254.2399 15.08841944 71309,6917.874,95.437,540.725,538.754,0.0
53905.0,STARLINK-5003,PAYLOAD,2024-01-04 21:18:15,15.08840724,0.0001293,53.2183,282.346,100.8416,259.2721,3.4997e-05,2.69e-06,0.0,0 STARLINK-5003,1 53905U 22119V   24004.88767468  .00000269  00000-0  34997-4 0  9994,2 53905  53.2183 282.3460 0001293 100.8416 259.2721 15.08840724 71832,6917.878,95.438,540.638,538.849,0.0
53905.0,STARLINK-5003,PAYLOAD,2024-01-05 02:04:24,15.08846266,0.0001307,53.218,281.4544,94.0333,266.0809,9.1719e-05,1.172e-05,0.0,0 STARLINK-5003,1 53905U 22119V   24005.08639026  .00001172  00000-0  91719-4 0  9994,2 53905  53.2180 281.4544 0001307  94.0333 266.0809 15.08846266 71863,6917.861,95.437,540.63,538.822,0.0
53905.0,STARLINK-5003,PAYLOAD,2024-01-05 22:44:25,15.08815365,0.0001397,53.2172,277.5926,93.502,266.6132,0.00035727,5.399e-05,0.0,0 STARLINK-5003,1 53905U 22119V   24005.94752295  .00005399  00000-0  35727-3 0  9994,2 53905  53.2172 277.5926 0001397  93.5020 266.6132 15.08815365 71995,6917.956,95.439,540.787,538.854,0.0
53905.0,STARLINK-5003,PAYLOAD,2024-01-06 03:30:34,15.08843076,0.0001357,53.2169,276.6992,89.9997,270.1151,9.0144e-05,1.147e-05,0.0,0 STARLINK-5003,1 53905U 22119V   24006.14623474  .00001147  00000-0  90144-4 0  9995,2 53905  53.2169 276.6992 0001357  89.9997 270.1151 15.08843076 71601,6917.871,95.437,540.675,538.797,0.0
53905.0,STARLINK-5003,PAYLOAD,2024-01-06 22:35:12,15.08840956,0.000158,53.2179,273.129,84.3348,275.7824,-1.063e-05,-4.57e-06,0.0,0 STARLINK-5003,1 53905U 22119V   24006.94112040 -.00000457  00000-0 -10630-4 0  9992,2 53905  53.2179 273.1290 0001580  84.3348 275.7824 15.08840956 72144,6917.877,95.437,540.835,538.649,0.0
53905.0,STARLINK-5003,PAYLOAD,2024-01-07 00:10:35,15.08842631,0.0001591,53.2176,272.8318,86.878,273.2394,5.7401e-06,-1.97e-06,0.0,0 STARLINK-5003,1 53905U 22119V   24007.00735864 -.00000197  00000-0  57401-5 0  9993,2 53905  53.2176 272.8318 0001591  86.8780 273.2394 15.08842631 71738,6917.872,95.437,540.838,538.637,0.0
